{"type": "FeatureCollection", "features": [ {"type": "Feature", "properties": {"norad_id": 65942, "name": "BOTAN", "group": "stations", "lat": 33.83084544977036, "lon": -37.29543415236527, "alt_km": 378.23874550712935, "timestamp": "2025-12-05T16:54:13.505161+00:00", "meta": {"OBJECT_NAME": "BOTAN", "OBJECT_ID": "1998-067XP", "EPOCH": "2025-12-04T15:44:42.289728", "MEAN_MOTION": 15.60784931, "ECCENTRICITY": 0.00042645, "INCLINATION": 51.6268, "RA_OF_ASC_NODE": 180.0664, "ARG_OF_PERICENTER": 180.2775, "MEAN_ANOMALY": 179.8217, "EPHEMERIS_TYPE": 0, "CLASSIFICATION_TYPE": "U", "NORAD_CAT_ID": 65942, "ELEMENT_SET_NO": 999, "REV_AT_EPOCH": 860, "BSTAR": 0.0017279415, "MEAN_MOTION_DOT": 0.00149041, "MEAN_MOTION_DDOT": 0}, "tle": {"line1": "1 65942U 98067XP  25338.65604502  .00149041  00000+0  17279-2 0  9991", "line2": "2 65942  51.6268 180.0664 0004264 180.2775 179.8217 15.60784931  8600"}}, "geometry": {"type": "Point", "coordinates": [-37.29543415236527, 33.83084544977036]}}, {"type": "Feature", "properties": {"norad_id": 65943, "name": "E-KAGAKU-1", "group": "stations", "lat": -45.383881904520756, "lon": 48.72293712363275, "alt_km": 396.8037548131215, "timestamp": "2025-12-05T16:54:13.505170+00:00", "meta": {"OBJECT_NAME": "E-KAGAKU-1", "OBJECT_ID": "1998-067XQ", "EPOCH": "2025-12-04T19:50:44.475360", "MEAN_MOTION": 15.58070378, "ECCENTRICITY": 0.00035721, "INCLINATION": 51.6297, "RA_OF_ASC_NODE": 179.7082, "ARG_OF_PERICENTER": 159.4273, "MEAN_ANOMALY": 200.6864, "EPHEMERIS_TYPE": 0, "CLASSIFICATION_TYPE": "U", "NORAD_CAT_ID": 65943, "ELEMENT_SET_NO": 999, "REV_AT_EPOCH": 862, "BSTAR": 0.0013396072, "MEAN_MOTION_DOT": 0.00103476, "MEAN_MOTION_DDOT": 0}, "tle": {"line1": "1 65943U 98067XQ  25338.82690365  .00103476  00000+0  13396-2 0  9991", "line2": "2 65943  51.6297 179.7082 0003572 159.4273 200.6864 15.58070378  8627"}}, "geometry": {"type": "Point", "coordinates": [48.72293712363275, -45.383881904520756]}}, {"type": "Feature", "properties": {"norad_id": 66052, "name": "HRC MONOBLOCK CAMERA", "group": "stations", "lat": -2.9019911397312974, "lon": 174.2654749027466, "alt_km": 410.44410277874704, "timestamp": "2025-12-05T16:54:13.505179+00:00", "meta": {"OBJECT_NAME": "HRC MONOBLOCK CAMERA", "OBJECT_ID": "1998-067XR", "EPOCH": "2025-12-05T06:06:43.576992", "MEAN_MOTION": 15.53416514, "ECCENTRICITY": 0.00042499, "INCLINATION": 51.6284, "RA_OF_ASC_NODE": 178.8082, "ARG_OF_PERICENTER": 154.3849, "MEAN_ANOMALY": 205.7352, "EPHEMERIS_TYPE": 0, "CLASSIFICATION_TYPE": "U", "NORAD_CAT_ID": 66052, "ELEMENT_SET_NO": 999, "REV_AT_EPOCH": 767, "BSTAR": 0.00075336119, "MEAN_MOTION_DOT": 0.00048428, "MEAN_MOTION_DDOT": 0}, "tle": {"line1": "1 66052U 98067XR  25339.25467103  .00048428  00000+0  75336-3 0  9991", "line2": "2 66052  51.6284 178.8082 0004249 154.3849 205.7352 15.53416514  7673"}}, "geometry": {"type": "Point", "coordinates": [174.2654749027466, -2.9019911397312974]}}, {"type": "Feature", "properties": {"norad_id": 66174, "name": "HTV-X1", "group": "stations", "lat": -0.45647750331070136, "lon": 176.94905537899047, "alt_km": 421.59123960302895, "timestamp": "2025-12-05T16:54:13.505189+00:00", "meta": {"OBJECT_NAME": "HTV-X1", "OBJECT_ID": "2025-241A", "EPOCH": "2025-12-05T06:04:12.236160", "MEAN_MOTION": 15.49328184, "ECCENTRICITY": 0.00035858, "INCLINATION": 51.6297, "RA_OF_ASC_NODE": 179.5463, "ARG_OF_PERICENTER": 206.2517, "MEAN_ANOMALY": 153.8291, "EPHEMERIS_TYPE": 0, "CLASSIFICATION_TYPE": "U", "NORAD_CAT_ID": 66174, "ELEMENT_SET_NO": 999, "REV_AT_EPOCH": 51, "BSTAR": 0.0002719745, "MEAN_MOTION_DOT": 0.00014736, "MEAN_MOTION_DDOT": 0}, "tle": {"line1": "1 66174U 25241A   25339.25291940  .00014736  00000+0  27197-3 0  9991", "line2": "2 66174  51.6297 179.5463 0003585 206.2517 153.8291 15.49328184   515"}}, "geometry": {"type": "Point", "coordinates": [176.94905537899047, -0.45647750331070136]}}, {"type": "Feature", "properties": {"norad_id": 66515, "name": "SZ-21 MODULE", "group": "stations", "lat": 19.456986757080482, "lon": 82.51867894311145, "alt_km": 382.6487660232624, "timestamp": "2025-12-05T16:54:13.505198+00:00", "meta": {"OBJECT_NAME": "SZ-21 MODULE", "OBJECT_ID": "2025-246C", "EPOCH": "2025-12-05T06:01:59.906784", "MEAN_MOTION": 15.61952064, "ECCENTRICITY": 0.00060092, "INCLINATION": 41.4774, "RA_OF_ASC_NODE": 61.708, "ARG_OF_PERICENTER": 217.7851, "MEAN_ANOMALY": 142.2567, "EPHEMERIS_TYPE": 0, "CLASSIFICATION_TYPE": "U", "NORAD_CAT_ID": 66515, "ELEMENT_SET_NO": 999, "REV_AT_EPOCH": 327, "BSTAR": 0.00043191945, "MEAN_MOTION_DOT": 0.00038608, "MEAN_MOTION_DDOT": 0}, "tle": {"line1": "1 66515U 25246C   25339.25138781  .00038608  00000+0  43192-3 0  9995", "line2": "2 66515  41.4774  61.7080 0006009 217.7851 142.2567 15.61952064  3278"}}, "geometry": {"type": "Point", "coordinates": [82.51867894311145, 19.456986757080482]}}, {"type": "Feature", "properties": {"norad_id": 66645, "name": "SHENZHOU-22", "group": "stations", "lat": -16.36893218309931, "lon": -101.16884068421479, "alt_km": 397.0906587872887, "timestamp": "2025-12-05T16:54:13.505208+00:00", "meta": {"OBJECT_NAME": "SHENZHOU-22", "OBJECT_ID": "2025-272A", "EPOCH": "2025-12-05T06:48:03.993120", "MEAN_MOTION": 15.5871605, "ECCENTRICITY": 0.00098342, "INCLINATION": 41.4682, "RA_OF_ASC_NODE": 61.9587, "ARG_OF_PERICENTER": 333.0075, "MEAN_ANOMALY": 27.0251, "EPHEMERIS_TYPE": 0, "CLASSIFICATION_TYPE": "U", "NORAD_CAT_ID": 66645, "ELEMENT_SET_NO": 999, "REV_AT_EPOCH": 26289, "BSTAR": 0.00043162186, "MEAN_MOTION_DOT": 0.00034071, "MEAN_MOTION_DDOT": 0}, "tle": {"line1": "1 66645U 25272A   25339.28337955  .00034071  00000+0  43162-3 0  9992", "line2": "2 66645  41.4682  61.9587 0009834 333.0075  27.0251 15.58716050262897"}}, "geometry": {"type": "Point", "coordinates": [-101.16884068421479, -16.36893218309931]}}, {"type": "Feature", "properties": {"norad_id": 66646, "name": "CZ-2F R/B", "group": "stations", "lat": -1.1064174075289905, "lon": -123.98315914886717, "alt_km": 187.09579205898626, "timestamp": "2025-12-05T16:54:13.505218+00:00", "meta": {"OBJECT_NAME": "CZ-2F R/B", "OBJECT_ID": "2025-272B", "EPOCH": "2025-11-26T11:17:54.506400", "MEAN_MOTION": 16.01945612, "ECCENTRICITY": 0.01210796, "INCLINATION": 41.4431, "RA_OF_ASC_NODE": 114.9009, "ARG_OF_PERICENTER": 133.7676, "MEAN_ANOMALY": 227.3272, "EPHEMERIS_TYPE": 0, "CLASSIFICATION_TYPE": "U", "NORAD_CAT_ID": 66646, "ELEMENT_SET_NO": 999, "REV_AT_EPOCH": 21, "BSTAR": 0.00029319366, "MEAN_MOTION_DOT": 0.00449059, "MEAN_MOTION_DDOT": 7.567612e-06}, "tle": {"line1": "1 66646U 25272B   25330.47076975  .00449059  75676-5  29319-3 0  9998", "line2": "2 66646  41.4431 114.9009 0121079 133.7676 227.3272 16.01945612   217"}}, "geometry": {"type": "Point", "coordinates": [-123.98315914886717, -1.1064174075289905]}}, {"type": "Feature", "properties": {"norad_id": 66664, "name": "SOYUZ-MS 28", "group": "stations", "lat": -0.45647558028070667, "lon": 176.9490569005808, "alt_km": 421.59123940339487, "timestamp": "2025-12-05T16:54:13.505227+00:00", "meta": {"OBJECT_NAME": "SOYUZ-MS 28", "OBJECT_ID": "2025-275A", "EPOCH": "2025-12-05T06:04:12.236160", "MEAN_MOTION": 15.49328184, "ECCENTRICITY": 0.00035858, "INCLINATION": 51.6297, "RA_OF_ASC_NODE": 179.5463, "ARG_OF_PERICENTER": 206.2517, "MEAN_ANOMALY": 153.8291, "EPHEMERIS_TYPE": 0, "CLASSIFICATION_TYPE": "U", "NORAD_CAT_ID": 66664, "ELEMENT_SET_NO": 999, "REV_AT_EPOCH": 128, "BSTAR": 0.0002719745, "MEAN_MOTION_DOT": 0.00014736, "MEAN_MOTION_DDOT": 0}, "tle": {"line1": "1 66664U 25275A   25339.25291940  .00014736  00000+0  27197-3 0  9992", "line2": "2 66664  51.6297 179.5463 0003585 206.2517 153.8291 15.49328184  1284"}}, "geometry": {"type": "Point", "coordinates": [176.9490569005808, -0.45647558028070667]}}]}